QIANFAN-17              
1 60395U 24140S   25363.76872208  .00000160  00000+0  22837-3 0  9994
2 60395  88.9786 297.6752 0015322 149.6927 210.5113 13.50980537 70438
QIANFAN-18              
1 60396U 24140T   25363.82220328  .00000169  00000+0  24348-3 0  9990
2 60396  88.9779 297.2022 0015187 132.7152 227.5280 13.50980656 69836
QIANFAN-19              
1 61552U 24185A   25363.77726302  .00000646  00000+0  33072-3 0  9995
2 61552  88.9812  75.9925 0005143 238.3926 121.6759 14.14314485 72072
QIANFAN-20              
1 61553U 24185B   25363.80466354  .00000618  00000+0  35019-3 0  9990
2 61553  88.9810  76.3304 0003612 298.1739  61.9079 14.08861456 71890
QIANFAN-21              
1 61554U 24185C   25363.77228301  .00000880  00000+0  38719-3 0  9996
2 61554  88.9726  74.9879 0008730 314.9062  45.1420 14.22632444 72399
QIANFAN-22              
1 61555U 24185D   25363.75171307  .00000237  00000+0  19330-3 0  9992
2 61555  88.9795  77.3858 0004654 314.9322  45.1471 13.86309912 71294
QIANFAN-23              
1 61556U 24185E   25363.72866368  .00000625  00000+0  30827-3 0  9993
2 61556  88.9803  75.7997 0005640 255.2557 104.8006 14.16310094 72154
QIANFAN-24              
1 61557U 24185F   25363.76060334  .00000803  00000+0  34495-3 0  9990
2 61557  88.9785  75.1731 0007801 233.2906 126.7571 14.23833507 72448
